{
  "type": "FeatureCollection",
  "features": [
    {
      "type": "Feature",
      "properties": {
        "norad_id": 31773,
        "name": "FENGYUN 1C DEB",
        "group": "fengyun-1c-debris",
        "lat": 73.801840926257,
        "lon": -178.02901317854608,
        "alt_km": 650.8179769848839,
        "timestamp": "2025-12-04T23:34:06.006740+00:00",
        "meta_object_name": "FENGYUN 1C DEB",
        "meta_object_id": "1999-025CFY",
        "meta_epoch": "2025-12-01T05:23:44.833344",
        "meta_mean_motion": 14.72359777,
        "meta_eccentricity": 0.0038605,
        "meta_inclination": 98.9488,
        "meta_ra_of_asc_node": 324.9883,
        "meta_arg_of_pericenter": 215.5051,
        "meta_mean_anomaly": 144.3583,
        "meta_ephemeris_type": 0,
        "meta_classification_type": "U",
        "meta_norad_cat_id": 31773,
        "meta_element_set_no": 999,
        "meta_rev_at_epoch": 65005,
        "meta_bstar": 0.0025423,
        "meta_mean_motion_dot": 0.00016254,
        "meta_mean_motion_ddot": 0,
        "tle_line1": "1 31773U 99025CFY 25335.22482446  .00016254  00000+0  25423-2 0  9991",
        "tle_line2": "2 31773  98.9488 324.9883 0038605 215.5051 144.3583 14.72359777650053"
      },
      "geometry": {
        "type": "Point",
        "coordinates": [
          -178.02901317854608,
          73.801840926257
        ]
      }
    },
    {
      "type": "Feature",
      "properties": {
        "norad_id": 31776,
        "name": "FENGYUN 1C DEB",
        "group": "fengyun-1c-debris",
        "lat": -67.2377766347233,
        "lon": -163.84449451912346,
        "alt_km": 850.0662289379188,
        "timestamp": "2025-12-04T23:34:06.006750+00:00",
        "meta_object_name": "FENGYUN 1C DEB",
        "meta_object_id": "1999-025CGB",
        "meta_epoch": "2025-12-01T15:32:26.394144",
        "meta_mean_motion": 14.18453446,
        "meta_eccentricity": 0.00544701,
        "meta_inclination": 99.0762,
        "meta_ra_of_asc_node": 35.1395,
        "meta_arg_of_pericenter": 7.0694,
        "meta_mean_anomaly": 144.5464,
        "meta_ephemeris_type": 0,
        "meta_classification_type": "U",
        "meta_norad_cat_id": 31776,
        "meta_element_set_no": 999,
        "meta_rev_at_epoch": 94723,
        "meta_bstar": 0.0013902785,
        "meta_mean_motion_dot": 2.868e-05,
        "meta_mean_motion_ddot": 0,
        "tle_line1": "1 31776U 99025CGB 25335.64752771  .00002868  00000+0  13903-2 0  9997",
        "tle_line2": "2 31776  99.0762  35.1395 0054470   7.0694 144.5464 14.18453446947234"
      },
      "geometry": {
        "type": "Point",
        "coordinates": [
          -163.84449451912346,
          -67.2377766347233
        ]
      }
    },
    {
      "type": "Feature",
      "properties": {
        "norad_id": 31779,
        "name": "FENGYUN 1C DEB",
        "group": "fengyun-1c-debris",
        "lat": -80.6946468873586,
        "lon": -12.969224659801652,
        "alt_km": 692.5663064279706,
        "timestamp": "2025-12-04T23:34:06.006760+00:00",
        "meta_object_name": "FENGYUN 1C DEB",
        "meta_object_id": "1999-025CGE",
        "meta_epoch": "2025-12-04T12:19:43.566816",
        "meta_mean_motion": 14.41567886,
        "meta_eccentricity": 0.0212956,
        "meta_inclination": 99.2973,
        "meta_ra_of_asc_node": 257.7521,
        "meta_arg_of_pericenter": 207.0954,
        "meta_mean_anomaly": 151.899,
        "meta_ephemeris_type": 0,
        "meta_classification_type": "U",
        "meta_norad_cat_id": 31779,
        "meta_element_set_no": 999,
        "meta_rev_at_epoch": 96891,
        "meta_bstar": 0.00053028,
        "meta_mean_motion_dot": 2.199e-05,
        "meta_mean_motion_ddot": 0,
        "tle_line1": "1 31779U 99025CGE 25338.51369869  .00002199  00000+0  53028-3 0  9991",
        "tle_line2": "2 31779  99.2973 257.7521 0212956 207.0954 151.8990 14.41567886968915"
      },
      "geometry": {
        "type": "Point",
        "coordinates": [
          -12.969224659801652,
          -80.6946468873586
        ]
      }
    },
    {
      "type": "Feature",
      "properties": {
        "norad_id": 31780,
        "name": "FENGYUN 1C DEB",
        "group": "fengyun-1c-debris",
        "lat": 8.311997428326547,
        "lon": -48.07782067237448,
        "alt_km": 671.334075009242,
        "timestamp": "2025-12-04T23:34:06.006771+00:00",
        "meta_object_name": "FENGYUN 1C DEB",
        "meta_object_id": "1999-025CGF",
        "meta_epoch": "2025-12-04T16:16:09.846336",
        "meta_mean_motion": 14.69489035,
        "meta_eccentricity": 0.015109,
        "meta_inclination": 99.2854,
        "meta_ra_of_asc_node": 130.207,
        "meta_arg_of_pericenter": 77.85,
        "meta_mean_anomaly": 283.9582,
        "meta_ephemeris_type": 0,
        "meta_classification_type": "U",
        "meta_norad_cat_id": 31780,
        "meta_element_set_no": 999,
        "meta_rev_at_epoch": 98379,
        "meta_bstar": 0.00062815,
        "meta_mean_motion_dot": 4.368e-05,
        "meta_mean_motion_ddot": 0,
        "tle_line1": "1 31780U 99025CGF 25338.67789174  .00004368  00000+0  62815-3 0  9999",
        "tle_line2": "2 31780  99.2854 130.2070 0151090  77.8500 283.9582 14.69489035983796"
      },
      "geometry": {
        "type": "Point",
        "coordinates": [
          -48.07782067237448,
          8.311997428326547
        ]
      }
    },
    {
      "type": "Feature",
      "properties": {
        "norad_id": 31781,
        "name": "FENGYUN 1C DEB",
        "group": "fengyun-1c-debris",
        "lat": 75.60065585145983,
        "lon": 108.71112105154582,
        "alt_km": 960.6306592419633,
        "timestamp": "2025-12-04T23:34:06.006781+00:00",
        "meta_object_name": "FENGYUN 1C DEB",
        "meta_object_id": "1999-025CGG",
        "meta_epoch": "2025-12-02T06:36:07.026912",
        "meta_mean_motion": 14.12719425,
        "meta_eccentricity": 0.0203779,
        "meta_inclination": 99.4973,
        "meta_ra_of_asc_node": 146.5341,
        "meta_arg_of_pericenter": 302.7717,
        "meta_mean_anomaly": 55.3963,
        "meta_ephemeris_type": 0,
        "meta_classification_type": "U",
        "meta_norad_cat_id": 31781,
        "meta_element_set_no": 999,
        "meta_rev_at_epoch": 68200,
        "meta_bstar": 0.0037688,
        "meta_mean_motion_dot": 8.472e-05,
        "meta_mean_motion_ddot": 0,
        "tle_line1": "1 31781U 99025CGG 25336.27508133  .00008472  00000+0  37688-2 0  9997",
        "tle_line2": "2 31781  99.4973 146.5341 0203779 302.7717  55.3963 14.12719425682005"
      },
      "geometry": {
        "type": "Point",
        "coordinates": [
          108.71112105154582,
          75.60065585145983
        ]
      }
    },
    {
      "type": "Feature",
      "properties": {
        "norad_id": 31782,
        "name": "FENGYUN 1C DEB",
        "group": "fengyun-1c-debris",
        "lat": -65.93502131710878,
        "lon": -60.63926422912933,
        "alt_km": 816.5143236361346,
        "timestamp": "2025-12-04T23:34:06.006791+00:00",
        "meta_object_name": "FENGYUN 1C DEB",
        "meta_object_id": "1999-025CGH",
        "meta_epoch": "2025-12-01T17:34:28.802784",
        "meta_mean_motion": 14.36194439,
        "meta_eccentricity": 0.00799495,
        "meta_inclination": 98.904,
        "meta_ra_of_asc_node": 136.5548,
        "meta_arg_of_pericenter": 29.379,
        "meta_mean_anomaly": 346.2084,
        "meta_ephemeris_type": 0,
        "meta_classification_type": "U",
        "meta_norad_cat_id": 31782,
        "meta_element_set_no": 999,
        "meta_rev_at_epoch": 96533,
        "meta_bstar": 0.00037631205,
        "meta_mean_motion_dot": 1.091e-05,
        "meta_mean_motion_ddot": 0,
        "tle_line1": "1 31782U 99025CGH 25335.73227781  .00001091  00000+0  37631-3 0  9994",
        "tle_line2": "2 31782  98.9040 136.5548 0079949  29.3790 346.2084 14.36194439965330"
      },
      "geometry": {
        "type": "Point",
        "coordinates": [
          -60.63926422912933,
          -65.93502131710878
        ]
      }
    },
    {
      "type": "Feature",
      "properties": {
        "norad_id": 31783,
        "name": "FENGYUN 1C DEB",
        "group": "fengyun-1c-debris",
        "lat": -12.452572673595292,
        "lon": 166.07533143628208,
        "alt_km": 905.8984876945433,
        "timestamp": "2025-12-04T23:34:06.006801+00:00",
        "meta_object_name": "FENGYUN 1C DEB",
        "meta_object_id": "1999-025CGJ",
        "meta_epoch": "2025-12-04T07:23:54.597120",
        "meta_mean_motion": 14.08804489,
        "meta_eccentricity": 0.0104591,
        "meta_inclination": 98.6051,
        "meta_ra_of_asc_node": 347.3483,
        "meta_arg_of_pericenter": 73.7092,
        "meta_mean_anomaly": 302.6242,
        "meta_ephemeris_type": 0,
        "meta_classification_type": "U",
        "meta_norad_cat_id": 31783,
        "meta_element_set_no": 999,
        "meta_rev_at_epoch": 89102,
        "meta_bstar": 0.00098542,
        "meta_mean_motion_dot": 1.748e-05,
        "meta_mean_motion_ddot": 0,
        "tle_line1": "1 31783U 99025CGJ 25338.30827080  .00001748  00000+0  98542-3 0  9996",
        "tle_line2": "2 31783  98.6051 347.3483 0104591  73.7092 302.6242 14.08804489891028"
      },
      "geometry": {
        "type": "Point",
        "coordinates": [
          166.07533143628208,
          -12.452572673595292
        ]
      }
    }
  ]
}